[{"OBJECT_NAME":"OBJECT S","OBJECT_ID":"2024-199S","EPOCH":"2026-03-09T22:22:49.887840","MEAN_MOTION":15.3495177,"ECCENTRICITY":0.00086914,"INCLINATION":97.3152,"RA_OF_ASC_NODE":299.1504,"ARG_OF_PERICENTER":310.0662,"MEAN_ANOMALY":49.9819,"EPHEMERIS_TYPE":0,"CLASSIFICATION_TYPE":"U","NORAD_CAT_ID":61751,"ELEMENT_SET_NO":999,"REV_AT_EPOCH":12190,"BSTAR":0.00036395153,"MEAN_MOTION_DOT":0.00012279,"MEAN_MOTION_DDOT":0},{"OBJECT_NAME":"STARLINK-34423","OBJECT_ID":"2025-130Y","EPOCH":"2026-03-09T08:10:14.021184","MEAN_MOTION":15.30204972,"ECCENTRICITY":0.00013139,"INCLINATION":53.1589,"RA_OF_ASC_NODE":89.8674,"ARG_OF_PERICENTER":68.6661,"MEAN_ANOMALY":291.448,"EPHEMERIS_TYPE":0,"CLASSIFICATION_TYPE":"U","NORAD_CAT_ID":64460,"ELEMENT_SET_NO":999,"REV_AT_EPOCH":4065,"BSTAR":0.0010239809,"MEAN_MOTION_DOT":0.00030096,"MEAN_MOTION_DDOT":0}]
